SPACEBEE-5              
1 43817U 18099BM  22235.43487500  .00002958  00000+0  22972-3 0  9993
2 43817  97.6285 305.4015 0006849  44.0104 316.1664 15.02083311202825
SPACEBEE-6              
1 43818U 18099BN  22236.18429016  .00001926  00000+0  16289-3 0  9993
2 43818  97.6251 303.8099 0011888  28.7588 331.4288 14.99160186202987
SHIELDS 1               
1 43850U 18104B   22236.14593206  .00001716  00000+0  69069-4 0  9997
2 43850  85.0307   7.2818 0014676  24.9880 335.2070 15.23975008204811
STF-1                   
1 43852U 18104D   22235.43150607  .00004784  00000+0  17476-3 0  9996
2 43852  85.0328   7.8629 0013463  38.2758 321.9440 15.27730491204763
ZACUBE-2                
1 43907U 18111AH  22236.22370566  .00005263  00000+0  19065-3 0  9990
2 43907  97.1808 120.1246 0018989 193.4237 290.8375 15.28630880203648
LUME 1                  
1 43908U 18111AJ  22236.48696216  .00004224  00000+0  14097-3 0  9998
2 43908  97.1819 122.1721 0017799 184.4513 175.6574 15.31440492203807
AOBA VELOX-IV           
1 43940U 19003J   22235.84541419  .00011638  00000+0  28763-3 0  9990
2 43940  97.1217 269.8308 0014392 256.3127 103.6518 15.40523400200493
MOVE-IIB                
1 44398U 19038N   22236.52873787  .00008497  00000+0  39719-3 0  9990
2 44398  97.6338 206.5670 0018972 250.2874 109.6281 15.19882985173371
SONATE                  
1 44400U 19038Q   22235.89726429  .00003786  00000+0  20459-3 0  9990
2 44400  97.6450 204.7433 0021369 260.1006  99.7814 15.15141175173149
LUCKY-7                 
1 44406U 19038W   22235.65480071  .00002382  00000+0  12650-3 0  9995
2 44406  97.6432 205.0868 0020538 257.5660 102.3274 15.16155393173143
BEESAT 9                
1 44412U 19038AC  22236.11436134  .00003329  00000+0  16789-3 0  9994
2 44412  97.6403 205.9537 0017877 258.9762 100.9461 15.17727986172954
JAISAT-1                
1 44419U 19038F   22236.40851785  .00003639  00000+0  18080-3 0  9996
2 44419  97.6406 207.1406 0016897 254.4831 105.4537 15.18202453173360
DUCHIFAT-3              
1 44854U 19089C   22236.24548881  .00002639  00000+0  20644-3 0  9995
2 44854  36.9649  58.3300 0007977  39.6548 129.1973 15.01438989148124
EYESAT-NANO             
1 44877U 19092E   22236.44571722  .00004731  00000+0  20004-3 0  9991
2 44877  97.4645  60.3951 0012454 115.3736 244.8792 15.23639482148713
ORBITAL FACTORY 2 (OF-2)
1 45113U 19071C   22236.13601340  .00015514  00000+0  29462-3 0  9996
2 45113  51.6378  85.5966 0008904  67.4915 292.7015 15.48434490143857
M2 PATHFINDER           
1 45727U 20037E   22236.48669711  .00000457  00000+0  50330-4 0  9994
2 45727  97.7402  50.7282 0012585 165.8388 194.3189 14.92166394116974
NETSAT-4                
1 46504U 20068U   22235.39152977  .00002123  00000+0  15914-3 0  9992
2 46504  97.7268 175.0737 0013351  94.2083 266.0668 15.03709122104109
NETSAT-3                
1 46505U 20068V   22235.60841853  .00001610  00000+0  12190-3 0  9998
2 46505  97.7268 175.2012 0012818 101.8370 258.4272 15.03671589104144
NETSAT-1                
1 46506U 20068W   22235.56077921  .00002060  00000+0  15497-3 0  9994
2 46506  97.7265 175.0776 0011273 113.6308 246.6097 15.03621001104130
NETSAT-2                
1 46507U 20068X   22235.37155959  .00002782  00000+0  20785-3 0  9999
2 46507  97.7258 174.8789 0010174 121.1569 239.0651 15.03602979104052
SAI-1 NANOCONNECT-2     
1 47701U 21015C   22236.21793206  .00005259  00000+0  19202-3 0  9990
2 47701  97.4204 312.8633 0010425 206.8913 153.1788 15.28510111 82563
BEESAT-6                
1 47957U 21022AB  22236.18838552  .00005338  00000+0  33726-3 0  9996
2 47957  97.5203 134.4773 0018324 278.5189 234.5216 15.09333004 78014
SMOG-1                  
1 47964U 21022AJ  22236.41245507  .00003148  00000+0  19315-3 0  9997
2 47964  97.5226 135.8880 0016380 262.2819  97.6551 15.10750584 77142
MMSATS-1                
1 47976U 98067SJ  22236.27833163  .00019602  00000+0  22662-3 0  9999
2 47976  51.6410 343.6193 0001628 296.2674  86.9104 15.61879351 80859
BCCSAT-1                
1 48041U 21022AK  22236.50320493  .00002102  00000+0  13364-3 0  9999
2 48041  97.5231 135.5140 0012996 259.9504 100.0259 15.09843418 77101
BEESAT-5                
1 48083U 21022AM  22235.95718840  .00005640  00000+0  35437-3 0  9995
2 48083  97.5159 134.2593 0018207 278.2600 137.5326 15.09513913 77111
BEESAT-7                
1 48084U 21022AN  22236.18255654  .00005020  00000+0  31686-3 0  9995
2 48084  97.5198 134.4842 0018368 278.5819 241.9754 15.09399541 76738
BEESAT-8                
1 48085U 21022AP  22235.96991036  .00004284  00000+0  27187-3 0  9994
2 48085  97.5208 134.2654 0018490 278.4689 145.0060 15.09286627 77263
RAMSAT                  
1 48850U 98067SL  22235.69891952  .00074654  00000+0  35766-3 0  9993
2 48850  51.6367 331.4560 0005927 338.1184  21.9565 15.82038090 67937
BD-28                   
1 48867U 98067SN  22235.96210545  .00189478  25040-4  49053-3 0  9995
2 48867  51.6242 324.0256 0009019 349.3637  10.7178 15.94642746 66803
BINAR-1                 
1 49272U 98067SR  22236.49586851  .00119492  00000+0  49180-3 0  9995
2 49272  51.6300 330.7105 0005374 328.3913  31.6767 15.85069658 50400
CUAVA-1                 
1 49275U 98067SU  22236.42205675  .00749401  32276-3  70724-3 0  9994
2 49275  51.6222 323.1828 0011981 339.9264  71.0973 16.11232991 50445
HSU-SAT1                
1 53462U 98067UB  22236.45179406  .00015518  00000+0  26448-3 0  9997
2 53462  51.6423 358.3030 0006626 179.0210 181.0794 15.51536804  1880
FUTABA                  
1 53463U 98067UC  22236.45107044  .00018804  00000+0  31707-3 0  9992
2 53463  51.6420 358.2987 0006549 180.2429 179.8558 15.51683232  1889
TUMNANOSAT              
1 53464U 98067UD  22236.45030948  .00021710  00000+0  36281-3 0  9993
2 53464  51.6418 358.2939 0006510 181.5094 178.5877 15.51832620  1881
BEIJING 1               
1 28890U 05043A   22236.59690054  .00000062  00000+0  21994-4 0  9998
2 28890  98.1253 357.7758 0014406 325.2806  34.7449 14.61480677897098
HJ-1A                   
1 33320U 08041A   22236.46512044  .00000307  00000+0  49258-4 0  9996
2 33320  97.6743 266.3229 0021508  15.0307 345.1542 14.77896283752431
HJ-1B                   
1 33321U 08041B   22236.27988363  .00000729  00000+0  10728-3 0  9994
2 33321  97.6910 269.8482 0035153  31.8712 328.4607 14.77836343752408
YAOGAN 4                
1 33446U 08061A   22236.37593113  .00000212  00000+0  36836-4 0  9996
2 33446  97.8188 174.4478 0014727 275.1979  84.7551 14.77439681739626
DEIMOS-1                
1 35681U 09041A   22236.36892129  .00000216  00000+0  41664-4 0  9995
2 35681  97.7084  83.9382 0002301  46.0020 314.1363 14.72093768701760
UK-DMC 2                
1 35683U 09041C   22236.42385502  .00000358  00000+0  65057-4 0  9995
2 35683  97.7036  45.8384 0001862  77.6941 282.4477 14.71469384701506
RISAT 1                 
1 38248U 12017A   22236.49189035  .00001554  00000+0  93534-4 0  9992
2 38248  97.5532 247.1274 0004933  44.6354 315.5273 15.12302994569125
DMC3-FM1                
1 40715U 15032A   22236.24747025  .00000300  00000+0  44165-4 0  9990
2 40715  97.8374 121.7050 0004880 310.1004  49.9774 14.82172393383332
DMC3-FM2                
1 40716U 15032B   22236.27032342  .00000309  00000+0  45296-4 0  9998
2 40716  97.8415 122.4049 0006895 309.9917  50.0693 14.82164844383348
DMC3-FM3                
1 40717U 15032C   22236.29214111  .00000300  00000+0  44188-4 0  9997
2 40717  97.8451 123.3667 0008835 306.3632  53.6764 14.82192658383348
NOAA 15                 
1 25338U 98030A   22236.54389489  .00000087  00000+0  54360-4 0  9992
2 25338  98.6411 265.1775 0011561  98.8130 261.4359 14.26163907262973
DMSP 5D-3 F15 (USA 147) 
1 25991U 99067A   22236.51537296  .00000042  00000+0  44030-4 0  9990
2 25991  99.0569 229.2668 0010169   2.1889 164.2267 14.16563051173423
METEOSAT-8 (MSG-1)      
1 27509U 02040B   22235.62827146  .00000131  00000+0  00000+0 0  9992
2 27509   8.1585  50.2772 0001424 125.7333  63.4556  1.00270646 73285
DMSP 5D-3 F16 (USA 172) 
1 28054U 03048A   22236.48872583  .00000000  00000+0  23758-4 0  9992
2 28054  98.9928 227.6621 0008245 120.1486  32.8995 14.13678868972638
NOAA 18                 
1 28654U 05018A   22236.40880926  .00000119  00000+0  88193-4 0  9994
2 28654  98.9453 306.7787 0015102 136.9660 223.2696 14.12767384889663
METEOSAT-9 (MSG-2)      
1 28912U 05049B   22236.17474025  .00000123  00000+0  00000+0 0  9999
2 28912   6.1671  65.8535 0000925 198.7389 176.4072  1.00269926 61119
EWS-G1 (GOES 13)        
1 29155U 06018A   22235.81914403  .00000032  00000+0  00000+0 0  9994
2 29155   0.7572  96.4049 0005759 103.8337 128.1597  1.00275441 29400
DMSP 5D-3 F17 (USA 191) 
1 29522U 06050A   22236.49827853  .00000013  00000+0  29817-4 0  9996
2 29522  98.7669 250.2766 0010983  70.3237 289.9120 14.14107200815520
FENGYUN 3A              
1 32958U 08026A   22236.45441048  .00000003  00000+0  21730-4 0  9997
2 32958  98.5081 196.3260 0008588 179.0567 181.0627 14.18734363737979
FENGYUN 2E              
1 33463U 08066A   22236.03941215 -.00000206  00000+0  00000+0 0  9996
2 33463   6.0509  64.9111 0002751  24.0271 344.0719  1.00266395 50122
NOAA 19                 
1 33591U 09005A   22236.55943226  .00000092  00000+0  74618-4 0  9996
2 33591  99.1440 272.1127 0013824   1.1756 358.9445 14.12601518698066
GOES 14                 
1 35491U 09033A   22236.45840132 -.00000097  00000+0  00000+0 0  9994
2 35491   0.4730  94.1179 0015027 119.6812 179.4004  1.00272681 48196
METEOR-M 1              
1 35865U 09049A   22236.49129266  .00000024  00000+0  30039-4 0  9997
2 35865  98.5341 204.7858 0003126  48.1473 311.9972 14.22351348671359
DMSP 5D-3 F18 (USA 210) 
1 35951U 09057A   22236.21621838  .00000159  00000+0  10746-3 0  9995
2 35951  98.7276 213.9496 0009856 252.9339 107.0754 14.13543429662687
